  tle_line2: 2 42991  97.4116 328.7472 0001348 147.5033 212.6292 15.31737361430993
  apogee_km: 472.0
  perigee_km: 470.0
  period_min: 94.0
  inclination_deg: 97.40000000000002
  swath_width_km: 5.7
  num_terminal: 1
  battery_capacity_wh: 400.0
  storage_capacity_mb: 786432.0
  obs_store_rate_mb_per_min: 4800.0
  downlink_release_rate_mb_per_min: 27000.0
  charge_rate_w: 120.0
  idle_discharge_rate_w: 60.0
  obs_discharge_rate_w: 180.0
  downlink_discharge_rate_w: 30.0
  max_slew_velocity_deg_per_sec: 3.0
  max_slew_acceleration_deg_per_sec2: 1.0
  max_slew_jerk_deg_per_sec3: null
  settling_time_sec: 1.0
  initial_storage_mb: 393216.0
  initial_battery_wh: 200.0
- id: sat_skysat-c6
  name: SKYSAT-C6
  norad_id: '42992'
  constellation: SKYSAT
  owner: US
  tle_epoch: '2025-07-16T22:04:33.981Z'
  tle_line1: 1 42992U 17068F   25197.91983775  .00006750  00000-0  23641-3 0  9998
  tle_line2: 2 42992  97.4151 329.3493 0002791 153.0378 207.1008 15.29812108430994
  apogee_km: 478.0
  perigee_km: 475.0
  period_min: 94.1
  inclination_deg: 97.40000000000002
  swath_width_km: 5.7
  num_terminal: 1
  battery_capacity_wh: 400.0
  storage_capacity_mb: 786432.0
  obs_store_rate_mb_per_min: 4800.0
  downlink_release_rate_mb_per_min: 27000.0
  charge_rate_w: 120.0
  idle_discharge_rate_w: 60.0
  obs_discharge_rate_w: 180.0
  downlink_discharge_rate_w: 30.0
  max_slew_velocity_deg_per_sec: 3.0
  max_slew_acceleration_deg_per_sec2: 1.0
  max_slew_jerk_deg_per_sec3: null
  settling_time_sec: 1.0
  initial_storage_mb: 393216.0
  initial_battery_wh: 200.0
- id: sat_skysat-c12
  name: SKYSAT-C12
  norad_id: '43797'
  constellation: SKYSAT
  owner: US
  tle_epoch: '2025-07-17T01:48:13.749Z'
  tle_line1: 1 43797U 18099AR  25198.07515914  .00008075  00000-0  22203-3 0  9996
  tle_line2: 2 43797  96.9643 231.8166 0003128 309.8877  50.2094 15.37434717370183
  apogee_km: 456.0
  perigee_km: 452.0
  period_min: 93.7
  inclination_deg: 97.0
  swath_width_km: 5.7
  num_terminal: 1
  battery_capacity_wh: 400.0
  storage_capacity_mb: 786432.0
  obs_store_rate_mb_per_min: 4800.0
  downlink_release_rate_mb_per_min: 27000.0
  charge_rate_w: 120.0
  idle_discharge_rate_w: 60.0
  obs_discharge_rate_w: 180.0
  downlink_discharge_rate_w: 30.0
  max_slew_velocity_deg_per_sec: 3.0
  max_slew_acceleration_deg_per_sec2: 1.0
  max_slew_jerk_deg_per_sec3: null
  settling_time_sec: 1.0
  initial_storage_mb: 393216.0
  initial_battery_wh: 200.0
- id: sat_skysat-c13
  name: SKYSAT-C13
  norad_id: '43802'
  constellation: SKYSAT
  owner: US
  tle_epoch: '2025-07-17T02:50:20.857Z'
  tle_line1: 1 43802U 18099AW  25198.11829696  .00018694  00000-0  30711-3 0  9994
  tle_line2: 2 43802  96.9840 244.5139 0008295  49.6523 310.5454 15.52403035370398
  apogee_km: 416.0
  perigee_km: 404.0
  period_min: 92.8
  inclination_deg: 97.0
  swath_width_km: 5.7
  num_terminal: 1
  battery_capacity_wh: 400.0
  storage_capacity_mb: 786432.0
  obs_store_rate_mb_per_min: 4800.0
  downlink_release_rate_mb_per_min: 27000.0
  charge_rate_w: 120.0
  idle_discharge_rate_w: 60.0
  obs_discharge_rate_w: 180.0
  downlink_discharge_rate_w: 30.0
  max_slew_velocity_deg_per_sec: 3.0
  max_slew_acceleration_deg_per_sec2: 1.0
  max_slew_jerk_deg_per_sec3: null
  settling_time_sec: 1.0
  initial_storage_mb: 393216.0
  initial_battery_wh: 200.0
